GUOWANG GROUP 20 OBJECT*
1 68134U 26047F   26081.53908163 -.00000024  00000+0  80292-4 0  9994
2 68134  50.0098  18.0376 0001549 290.5042  69.5697 14.03853988  1363
GUOWANG GROUP 20 OBJECT*
1 68135U 26047G   26081.61110949  .00000032  00000+0  11611-3 0  9997
2 68135  50.0130  17.7516 0002378 303.3923  56.6754 14.03554926  1388
GUOWANG GROUP 20 OBJECT*
1 68136U 26047H   26081.53812320 -.00000095  00000+0  35643-4 0  9993
2 68136  50.0090  18.0296 0002883 313.7948  46.2718 14.04117144  1367
GUOWANG GROUP 20 OBJECT*
1 68137U 26047J   26081.53689084 -.00000132  00000+0  12583-4 0  9993
2 68137  50.0076  18.0273 0000963 332.2478  27.8375 14.04378980  1370
CZ-8A R/B               
1 68138U 26047K   26082.98052677  .00000088  00000+0  12998-3 0  9994
2 68138  49.9541  11.5768 0044770 187.4400 172.5848 14.12230633  1577
SHIYAN-30 03            
1 68139U 26048A   26082.96125922  .00002469  00000+0  24346-3 0  9993
2 68139  35.0005  58.5209 0003763 319.4886  40.5538 14.91696984  1631
SHIYAN-30 04            
1 68140U 26048B   26082.96200342  .00002373  00000+0  23405-3 0  9994
2 68140  34.9920  58.5259 0002271 318.1784  41.8747 14.91706716  1639
CZ-2D R/B               
1 68141U 26048C   26082.93612448  .00001568  00000+0  14125-3 0  9990
2 68141  35.1299  58.5877 0014875  90.1269 270.1144 14.95544212  1639
STARLINK-36604          
1 68142U 26049A   26082.91667824 -.01750278  00000+0 -83654-2 0  9992
2 68142  97.2799 102.8144 0001250  74.9930 319.2736 15.85771868  2915
STARLINK-36995          
1 68143U 26049B   26082.91667824 -.01746920  00000+0 -82766-2 0  9995
2 68143  97.2799 102.8157 0001289  68.7641 328.9540 15.85944182  2902
STARLINK-37020          
1 68144U 26049C   26082.91667824 -.01777623  00000+0 -84175-2 0  9996
2 68144  97.2795 102.8191 0001423  74.6451 331.5344 15.86011720  2908
STARLINK-36244          
1 68145U 26049D   26082.91667824 -.01810232  00000+0 -86522-2 0  9999
2 68145  97.2787 102.8231 0001282  75.8943 339.7523 15.85885535  2919
