CCSDS_OMM_VERS = 2.0
CREATION_DATE  = 
ORIGINATOR     = 

OBJECT_NAME    = GUOWANG GROUP 20 OBJECT F
OBJECT_ID      = 2026-047F
CENTER_NAME    = EARTH
REF_FRAME      = TEME
TIME_SYSTEM    = UTC
MEAN_ELEMENT_THEORY = SGP/SGP4

EPOCH          = 2026-03-22T12:56:16.652832
MEAN_MOTION    = 14.03853988
ECCENTRICITY   = .00015499
INCLINATION    = 50.0098
RA_OF_ASC_NODE = 18.0376
ARG_OF_PERICENTER = 290.5042
MEAN_ANOMALY   = 69.5697

EPHEMERIS_TYPE = 0
CLASSIFICATION_TYPE = U
NORAD_CAT_ID   = 68134
ELEMENT_SET_NO = 999
REV_AT_EPOCH   = 136
BSTAR          = .80291987E-4
MEAN_MOTION_DOT = -.24E-6
MEAN_MOTION_DDOT = 0

CCSDS_OMM_VERS = 2.0
CREATION_DATE  = 
ORIGINATOR     = 

OBJECT_NAME    = GUOWANG GROUP 20 OBJECT G
OBJECT_ID      = 2026-047G
CENTER_NAME    = EARTH
REF_FRAME      = TEME
TIME_SYSTEM    = UTC
MEAN_ELEMENT_THEORY = SGP/SGP4

EPOCH          = 2026-03-22T14:39:59.859936
MEAN_MOTION    = 14.03554926
ECCENTRICITY   = .00023781
INCLINATION    = 50.0130
RA_OF_ASC_NODE = 17.7516
ARG_OF_PERICENTER = 303.3923
MEAN_ANOMALY   = 56.6754

EPHEMERIS_TYPE = 0
CLASSIFICATION_TYPE = U
NORAD_CAT_ID   = 68135
ELEMENT_SET_NO = 999
REV_AT_EPOCH   = 138
BSTAR          = .11610707E-3
MEAN_MOTION_DOT = .32E-6
MEAN_MOTION_DDOT = 0

CCSDS_OMM_VERS = 2.0
CREATION_DATE  = 
ORIGINATOR     = 

OBJECT_NAME    = GUOWANG GROUP 20 OBJECT H
OBJECT_ID      = 2026-047H
CENTER_NAME    = EARTH
REF_FRAME      = TEME
TIME_SYSTEM    = UTC
MEAN_ELEMENT_THEORY = SGP/SGP4

EPOCH          = 2026-03-22T12:54:53.844480
MEAN_MOTION    = 14.04117144
ECCENTRICITY   = .00028835
INCLINATION    = 50.0090
RA_OF_ASC_NODE = 18.0296
ARG_OF_PERICENTER = 313.7948
MEAN_ANOMALY   = 46.2718

EPHEMERIS_TYPE = 0
CLASSIFICATION_TYPE = U
NORAD_CAT_ID   = 68136
ELEMENT_SET_NO = 999
REV_AT_EPOCH   = 136
BSTAR          = .35642897E-4
MEAN_MOTION_DOT = -.95E-6
MEAN_MOTION_DDOT = 0

CCSDS_OMM_VERS = 2.0
CREATION_DATE  = 
ORIGINATOR     = 

OBJECT_NAME    = GUOWANG GROUP 20 OBJECT J
OBJECT_ID      = 2026-047J
CENTER_NAME    = EARTH
REF_FRAME      = TEME
TIME_SYSTEM    = UTC
MEAN_ELEMENT_THEORY = SGP/SGP4

EPOCH          = 2026-03-22T12:53:07.368576
MEAN_MOTION    = 14.04378980
ECCENTRICITY   = .00009639
INCLINATION    = 50.0076
RA_OF_ASC_NODE = 18.0273
ARG_OF_PERICENTER = 332.2478
MEAN_ANOMALY   = 27.8375

EPHEMERIS_TYPE = 0
CLASSIFICATION_TYPE = U
NORAD_CAT_ID   = 68137
ELEMENT_SET_NO = 999
REV_AT_EPOCH   = 137
BSTAR          = .12583137E-4
MEAN_MOTION_DOT = -.132E-5
MEAN_MOTION_DDOT = 0

CCSDS_OMM_VERS = 2.0
CREATION_DATE  = 
ORIGINATOR     = 

OBJECT_NAME    = CZ-8A R/B
OBJECT_ID      = 2026-047K
CENTER_NAME    = EARTH
REF_FRAME      = TEME
TIME_SYSTEM    = UTC
MEAN_ELEMENT_THEORY = SGP/SGP4

EPOCH          = 2026-03-23T23:31:57.512928
MEAN_MOTION    = 14.12230633
ECCENTRICITY   = .00447709
INCLINATION    = 49.9541
RA_OF_ASC_NODE = 11.5768
ARG_OF_PERICENTER = 187.4400
MEAN_ANOMALY   = 172.5848

EPHEMERIS_TYPE = 0
CLASSIFICATION_TYPE = U
NORAD_CAT_ID   = 68138
ELEMENT_SET_NO = 999
REV_AT_EPOCH   = 157
BSTAR          = .12997665E-3
MEAN_MOTION_DOT = .88E-6
MEAN_MOTION_DDOT = 0

CCSDS_OMM_VERS = 2.0
CREATION_DATE  = 
ORIGINATOR     = 

OBJECT_NAME    = SHIYAN-30 03
OBJECT_ID      = 2026-048A
CENTER_NAME    = EARTH
REF_FRAME      = TEME
TIME_SYSTEM    = UTC
MEAN_ELEMENT_THEORY = SGP/SGP4

EPOCH          = 2026-03-23T23:04:12.796608
MEAN_MOTION    = 14.91696984
ECCENTRICITY   = .00037633
INCLINATION    = 35.0005
RA_OF_ASC_NODE = 58.5209
ARG_OF_PERICENTER = 319.4886
MEAN_ANOMALY   = 40.5538

EPHEMERIS_TYPE = 0
CLASSIFICATION_TYPE = U
NORAD_CAT_ID   = 68139
ELEMENT_SET_NO = 999
REV_AT_EPOCH   = 163
BSTAR          = .24345686E-3
MEAN_MOTION_DOT = .2469E-4
MEAN_MOTION_DDOT = 0

CCSDS_OMM_VERS = 2.0
CREATION_DATE  = 
ORIGINATOR     = 

OBJECT_NAME    = SHIYAN-30 04
OBJECT_ID      = 2026-048B
CENTER_NAME    = EARTH
REF_FRAME      = TEME
TIME_SYSTEM    = UTC
MEAN_ELEMENT_THEORY = SGP/SGP4

EPOCH          = 2026-03-23T23:05:17.095488
MEAN_MOTION    = 14.91706716
ECCENTRICITY   = .00022715
INCLINATION    = 34.9920
RA_OF_ASC_NODE = 58.5259
ARG_OF_PERICENTER = 318.1784
MEAN_ANOMALY   = 41.8747

EPHEMERIS_TYPE = 0
CLASSIFICATION_TYPE = U
NORAD_CAT_ID   = 68140
ELEMENT_SET_NO = 999
REV_AT_EPOCH   = 163
BSTAR          = .23404774E-3
MEAN_MOTION_DOT = .2373E-4
MEAN_MOTION_DDOT = 0

CCSDS_OMM_VERS = 2.0
CREATION_DATE  = 
ORIGINATOR     = 

OBJECT_NAME    = CZ-2D R/B
OBJECT_ID      = 2026-048C
CENTER_NAME    = EARTH
REF_FRAME      = TEME
TIME_SYSTEM    = UTC
MEAN_ELEMENT_THEORY = SGP/SGP4

EPOCH          = 2026-03-23T22:28:01.155072
MEAN_MOTION    = 14.95544212
ECCENTRICITY   = .00148755
INCLINATION    = 35.1299
RA_OF_ASC_NODE = 58.5877
ARG_OF_PERICENTER = 90.1269
MEAN_ANOMALY   = 270.1144

EPHEMERIS_TYPE = 0
CLASSIFICATION_TYPE = U
NORAD_CAT_ID   = 68141
ELEMENT_SET_NO = 999
REV_AT_EPOCH   = 163
BSTAR          = .14124882E-3
MEAN_MOTION_DOT = .1568E-4
MEAN_MOTION_DDOT = 0

CCSDS_OMM_VERS = 2.0
CREATION_DATE  = 
ORIGINATOR     = 

OBJECT_NAME    = STARLINK-36604
OBJECT_ID      = 2026-049A
CENTER_NAME    = EARTH
REF_FRAME      = TEME
TIME_SYSTEM    = UTC
MEAN_ELEMENT_THEORY = SGP/SGP4

EPOCH          = 2026-03-23T22:00:00.999936
MEAN_MOTION    = 15.85771868
ECCENTRICITY   = .00012505
INCLINATION    = 97.2799
RA_OF_ASC_NODE = 102.8144
ARG_OF_PERICENTER = 74.9930
MEAN_ANOMALY   = 319.2736

EPHEMERIS_TYPE = 0
CLASSIFICATION_TYPE = U
NORAD_CAT_ID   = 68142
ELEMENT_SET_NO = 999
REV_AT_EPOCH   = 291
BSTAR          = -.83654256E-2
MEAN_MOTION_DOT = -.1750278E-1
MEAN_MOTION_DDOT = 0

CCSDS_OMM_VERS = 2.0
CREATION_DATE  = 
ORIGINATOR     = 

OBJECT_NAME    = STARLINK-36995
OBJECT_ID      = 2026-049B
CENTER_NAME    = EARTH
REF_FRAME      = TEME
TIME_SYSTEM    = UTC
MEAN_ELEMENT_THEORY = SGP/SGP4

EPOCH          = 2026-03-23T22:00:00.999936
MEAN_MOTION    = 15.85944182
ECCENTRICITY   = .00012897
INCLINATION    = 97.2799
RA_OF_ASC_NODE = 102.8157
ARG_OF_PERICENTER = 68.7641
MEAN_ANOMALY   = 328.9540

EPHEMERIS_TYPE = 0
CLASSIFICATION_TYPE = U
NORAD_CAT_ID   = 68143
ELEMENT_SET_NO = 999
REV_AT_EPOCH   = 290
BSTAR          = -.82766496E-2
MEAN_MOTION_DOT = -.174692E-1
MEAN_MOTION_DDOT = 0

CCSDS_OMM_VERS = 2.0
CREATION_DATE  = 
ORIGINATOR     = 

OBJECT_NAME    = STARLINK-37020
OBJECT_ID      = 2026-049C
CENTER_NAME    = EARTH
REF_FRAME      = TEME
TIME_SYSTEM    = UTC
MEAN_ELEMENT_THEORY = SGP/SGP4

EPOCH          = 2026-03-23T22:00:00.999936
MEAN_MOTION    = 15.86011720
ECCENTRICITY   = .00014237
INCLINATION    = 97.2795
RA_OF_ASC_NODE = 102.8191
ARG_OF_PERICENTER = 74.6451
MEAN_ANOMALY   = 331.5344

EPHEMERIS_TYPE = 0
CLASSIFICATION_TYPE = U
NORAD_CAT_ID   = 68144
ELEMENT_SET_NO = 999
REV_AT_EPOCH   = 290
BSTAR          = -.84175075E-2
MEAN_MOTION_DOT = -.1777623E-1
MEAN_MOTION_DDOT = 0

CCSDS_OMM_VERS = 2.0
CREATION_DATE  = 
ORIGINATOR     = 

OBJECT_NAME    = STARLINK-36244
OBJECT_ID      = 2026-049D
CENTER_NAME    = EARTH
REF_FRAME      = TEME
TIME_SYSTEM    = UTC
MEAN_ELEMENT_THEORY = SGP/SGP4

EPOCH          = 2026-03-23T22:00:00.999936
MEAN_MOTION    = 15.85885535
ECCENTRICITY   = .00012826
INCLINATION    = 97.2787
RA_OF_ASC_NODE = 102.8231
ARG_OF_PERICENTER = 75.8943
MEAN_ANOMALY   = 339.7523

EPHEMERIS_TYPE = 0
CLASSIFICATION_TYPE = U
NORAD_CAT_ID   = 68145
ELEMENT_SET_NO = 999
REV_AT_EPOCH   = 291
BSTAR          = -.86522467E-2
MEAN_MOTION_DOT = -.1810232E-1
MEAN_MOTION_DDOT = 0

